ATLAS CENTAUR 2         
1 00694U 63047A   26242.48453893  .00001836  00000+0  21073-3 0  9992
2 00694  30.3549 303.8563 0545212 172.7929 188.0897 14.12645432156217
THOR AGENA D R/B        
1 00733U 64002A   26242.67195073  .00000103  00000+0  53945-4 0  9992
2 00733  99.1148 265.4198 0033830 111.3841 249.0957 14.34090382263234
SL-3 R/B                
1 00877U 64053B   26242.91934511  .00000077  00000+0  39181-4 0  9998
2 00877  65.0766 180.3847 0077938 237.4793 121.8761 14.61457977292251
SL-8 R/B                
1 02802U 67045B   26242.82037334  .00000179  00000+0  57219-4 0  9994
2 02802  74.0122  22.8562 0064488 347.4034  12.5508 14.45713780114186
SL-8 R/B                
1 03230U 68040B   26242.61722766  .00002550  00000+0  18584-3 0  9999
2 03230  74.0317 318.0310 0022730  90.5227 269.8566 15.04150470116150
OAO 2                   
1 03597U 68110A   26242.48922076  .00000136  00000+0  41780-4 0  9997
2 03597  34.9946  14.7950 0005113 158.1696 201.9213 14.47375446 44295
ISIS 1                  
1 03669U 69009A   26242.72231592  .00000191  00000+0  11934-3 0  9996
2 03669  88.4428 136.2195 1707666  97.7526 281.9892 11.30445010368191
SERT 2                  
1 04327U 70009A   26242.84991749 -.00000004  00000+0  51688-4 0  9995
2 04327  99.2853 176.5587 0005844  81.1419 349.3010 13.58744300803543
SL-3 R/B                
1 05118U 71028B   26242.90937994  .00074886  00000+0  44672-3 0  9997
2 05118  81.2300 194.3096 0011371  37.6018 322.6037 15.77555965 15993
ASTEX 1                 
1 05560U 71089A   26242.90301462  .00000294  00000+0  74726-4 0  9996
2 05560  92.7071 207.9375 0014152 208.4853 151.5582 14.50902043887569
SL-8 R/B                
1 05730U 71119B   26242.91829306  .00005186  00000+0  26721-3 0  9998
2 05730  73.8847 209.3111 0539221 140.0842 224.1298 14.40217810680552
OAO 3 (COPERNICUS)      
1 06153U 72065A   26242.69718086  .00000251  00000+0  55642-4 0  9999
2 06153  35.0067  25.8372 0006121 149.6836 227.5931 14.60095448871648
ATLAS CENTAUR R/B       
1 06155U 72065B   26242.72137496  .00000717  00000+0  10032-3 0  9995
2 06155  35.0027   5.5447 0033189  34.3731 325.9109 14.78026240867022
SL-8 R/B                
1 08459U 75112B   26242.88361753  .00000202  00000+0  74810-4 0  9996
2 08459  74.0594  58.4510 0014708 106.6501 253.6269 14.38273693656915
SL-3 R/B                
1 10114U 77057B   26242.91487258  .00011044  00000+0  20379-3 0  9996
2 10114  97.5874  63.1746 0007172  22.3397 337.8165 15.49270358695275
SEASAT 1                
1 10967U 78064A   26242.66355173  .00000125  00000+0  73203-4 0  9996
2 10967 108.0102 130.6269 0001801 302.6883  57.4088 14.46280442531662
SL-14 R/B               
1 11267U 79011B   26242.61640650  .00000335  00000+0  30373-4 0  9999
2 11267  82.5229 291.5264 0015616 190.7786 169.3101 14.92069752554711
SL-8 R/B                
1 11574U 79089B   26242.83211576  .00000137  00000+0  49417-4 0  9999
2 11574  74.0689 128.6776 0016780 256.7677 103.1608 14.42431796461217
SL-14 R/B               
1 11672U 80005B   26242.81125912  .00000370  00000+0  34782-4 0  9992
2 11672  82.5164 142.0620 0014394 306.4855  53.5037 14.91086500502433
SL-8 R/B                
1 12139U 81003B   26242.96026040  .00013581  00000+0  32161-3 0  9994
2 12139  82.9371 128.1762 0239850 289.8156  67.7365 15.16887628341049
SL-3 R/B                
1 12465U 81046B   26242.93188464  .00009828  00000+0  20215-3 0  9995
2 12465  81.2269  79.9197 0017978 128.1563 232.1306 15.45628303465311
SL-3 R/B                
1 12904U 81103B   26242.90894821  .00004112  00000+0  17442-3 0  9994
2 12904  81.1609   8.8009 0013594  61.1264 299.1330 15.22803239999739
SL-3 R/B                
1 13068U 82013B   26242.92329598  .00002504  00000+0  10411-3 0  9995
2 13068  81.1754 316.3102 0020778 312.9915  46.9575 15.23226306430863
SL-3 R/B                
1 13154U 82039B   26242.87913527  .00001754  00000+0  10281-3 0  9995
2 13154  81.1515  14.7989 0031279 104.0958 256.3748 15.10862718407931
SL-3 R/B                
1 13403U 82079B   26242.86329541  .00003894  00000+0  14773-3 0  9999
2 13403  81.1493 347.1137 0022659 296.0490  63.8411 15.26372630404252
SL-14 R/B               
1 13553U 82092B   26242.76743475  .00000362  00000+0  37707-4 0  9995
2 13553  82.5713 338.5163 0021873  84.2484  33.1250 14.86794740354797
SL-3 R/B                
1 13819U 83010B   26242.80978231  .00014146  00000+0  24178-3 0  9998
2 13819  81.1030 147.9415 0015039 148.7253 211.4893 15.51016759384896
SL-3 R/B                
1 14208U 83075B   26242.93212626  .00009267  00000+0  21973-3 0  9993
2 14208  97.6118 254.5687 0018789 329.3945  30.6203 15.41792466356973
COSMOS 1536             
1 14699U 84013A   26242.61506344  .00005256  00000+0  20387-3 0  9990
2 14699  82.5431 294.6823 0014589  37.0394 323.1848 15.25794944299123
SL-14 R/B               
1 14820U 84027B   26242.81958732  .00000315  00000+0  33058-4 0  9996
2 14820  82.5383  81.7192 0019359 114.7399 245.5835 14.86102730273494
SL-8 R/B                
1 15483U 85006B   26242.61914360  .00000105  00000+0  43585-4 0  9990
2 15483  74.0458 301.0915 0018129 176.5492 335.8674 14.37861242179028
SL-12 R/B(2)            
1 15772U 85042D   26242.94650310  .00000045  00000+0  41828-4 0  9990
2 15772  71.1064  79.5668 0036366 217.1710 246.9250 14.22018748139162
SL-14 R/B               
1 15945U 85069B   26242.95284793  .00000346  00000+0  36247-4 0  9993
2 15945  82.5251 221.0423 0018143 339.9028  20.1472 14.86560737198724
SL-16 R/B               
1 16182U 85097B   26242.90767353  .00000083  00000+0  65407-4 0  9999
2 16182  71.0026 133.7709 0008165 335.6114 102.3778 14.16617675111903
SL-14 R/B               
1 16496U 86006B   26242.88088692  .00000434  00000+0  42969-4 0  9995
2 16496  82.5242  95.8216 0077577  55.7369 305.1163 14.87003048175096
COSMOS 1743             
1 16719U 86034A   26242.75666419  .00066501  00000+0  45979-3 0  9999
2 16719  82.5209 249.0109 0003239  68.4944 291.6665 15.74284732207499
SL-14 R/B               
1 16792U 86046B   26242.84427288  .00000266  00000+0  27766-4 0  9993
2 16792  82.4792 275.6359 0023433  16.2286 343.9675 14.85716357152266
SL-14 R/B               
1 16882U 86055B   26242.71708888  .00000341  00000+0  36268-4 0  9998
2 16882  82.5230 323.0668 0020295 114.5484  41.7127 14.85769014145209
AJISAI (EGS)            
1 16908U 86061A   26242.89840877 -.00000095  00000+0  15400-4 0  9990
2 16908  50.0086 277.6638 0011231  10.8141  46.2809 12.44517170489694
SL-14 R/B               
1 17567U 87024B   26242.61243294  .00000294  00000+0  30566-4 0  9992
2 17567  82.5269 289.3037 0019334  48.1933 312.0931 14.86258715113966
COSMOS 1833             
1 17589U 87027A   26242.93232580 -.00000291  00000+0 -12964-3 0  9990
2 17589  70.9212 319.7699 0027092 299.4293  60.4125 14.13057433 34933
SL-16 R/B               
1 17590U 87027B   26242.54107119  .00000319  00000+0  18178-3 0  9990
2 17590  71.0009 270.1436 0006662 232.5508 127.5011 14.17181377 39974
SL-14 R/B               
1 17912U 87038B   26242.76434329  .00000318  00000+0  33967-4 0  9993
2 17912  82.5024 132.8343 0018068 312.6618  47.3075 14.85489609105070
COSMOS 1844             
1 17973U 87041A   26242.85126558 -.00000010  00000+0  19866-4 0  9998
2 17973  70.9008  26.8119 0028834 123.0644 237.3253 14.14584333 28219
SL-14 R/B               
1 18153U 87055B   26242.91262887  .00000327  00000+0  34695-4 0  9994
2 18153  82.5013 184.7846 0021258 153.3904 206.8409 14.85751654 95807
COSMOS 1867             
1 18187U 87060A   26242.88423581 -.00000039  00000+0  22961-4 0  9997
2 18187  65.0103 178.8629 0018163 281.2946  78.6097 14.31522564 44877
SL-14 R/B               
1 18749U 88001B   26242.91975382  .00000302  00000+0  31931-4 0  9991
2 18749  82.5130  31.4451 0018656  26.6151 333.6019 14.85651989 67896
COSMOS 1933             
1 18958U 88020A   26242.61097657  .00002925  00000+0  13786-3 0  9991
2 18958  82.5094  78.7019 0003176 336.3568  23.7520 15.19128304 76628
SL-3 R/B                
1 19046U 88032B   26242.90792878  .00004107  00000+0  18504-3 0  9999
2 19046  97.5334 225.9292 0024819 350.3497   9.7258 15.21361631 78587
SL-16 R/B               
1 19120U 88039B   26242.88099389  .00000109  00000+0  74365-4 0  9999
2 19120  71.0135  60.2154 0019751  70.6215 289.7043 14.19636315983107
COSMOS 1953             
1 19210U 88050A   26242.75123625  .00008494  00000+0  28309-3 0  9990
2 19210  82.5107 342.7900 0009664 221.6970 138.3535 15.30897977 64391
SL-8 R/B                
1 19257U 88053B   26242.95362500  .00000146  00000+0  55653-4 0  9992
2 19257  74.0483 151.2370 0021166 287.3777 152.4515 14.38990153  1555
COSMOS 1975             
1 19573U 88093A   26242.65814399  .00006592  00000+0  22447-3 0  9997
2 19573  82.5188 302.7533 0009334 275.1099  84.9076 15.30173608 45999
SL-14 R/B               
1 19574U 88093B   26242.77961617  .00000293  00000+0  30761-4 0  9998
2 19574  82.5278 238.6088 0020646 177.4829 355.8910 14.85782187 26865
SL-16 R/B               
1 19650U 88102B   26242.87748681 -.00000212  00000+0 -82695-4 0  9995
2 19650  71.0002 144.9833 0011999 108.0325 252.2107 14.16172314951557
INTERCOSMOS 24          
1 20261U 89080A   26242.75008528  .00000511  00000+0  15118-3 0  9992
2 20261  82.6123 351.1073 1186072 248.7885  98.2655 12.59714387688714
SL-14 R/B               
1 20262U 89080C   26242.88938072  .00000371  00000+0  10394-3 0  9998
2 20262  82.5888  61.2980 1229980 146.5249 222.0137 12.50595880681927
DELTA 1 R/B             
1 20323U 89089B   26242.50146450  .00000184  00000+0  54297-4 0  9998
2 20323  97.0656  62.1784 0067657 293.7581  65.6531 14.50768322920936
ARIANE 40 R/B           
1 20443U 90005H   26242.74380436  .00000155  00000+0  62486-4 0  9998
2 20443  98.2894 298.0173 0010937  46.6716 313.5383 14.39958201917853
DELTA 2 R/B(1)          
1 20453U 90008B   26242.92686254  .00202446  15735-4  74103-3 0  9990
2 20453  35.5938  90.1144 0033957 102.2015 258.2536 15.86352110953501
COSMOS 2058             
1 20465U 90010A   26242.97470333  .00002458  00000+0  13990-3 0  9992
2 20465  82.4656 235.5755 0011167  93.7247 266.5260 15.12365782968572
SL-14 R/B               
1 20466U 90010B   26242.69153953  .00000285  00000+0  31504-4 0  9996
2 20466  82.5002 103.9763 0021340  86.6191 273.7465 14.83685835954280
SL-14 R/B               
1 20511U 90018B   26242.87680723  .00000261  00000+0  29724-4 0  9990
2 20511  82.5184  60.2774 0014871 236.0124 123.9679 14.82255943948386
HST                     
1 20580U 90037B   26242.83844338  .00005591  00000+0  17102-3 0  9994
2 20580  28.4726 290.0642 0001560 244.0460 115.9976 15.31512856800026
SL-16 R/B               
1 20625U 90046B   26242.88074007  .00000206  00000+0  13091-3 0  9998
2 20625  70.9991 292.0752 0012970  31.8735 328.3170 14.15033250873034
COSMOS 2084             
1 20663U 90055A   26242.88076550  .00001540  00000+0  11767-3 0  9995
2 20663  62.7883 101.0976 0014692 344.2791  15.7852 15.06376882962550
SL-6 R/B(2)             
1 20666U 90055D   26242.77495292  .00001272  00000+0  10321-3 0  9991
2 20666  62.7823  21.5086 0052236  14.9225 345.3401 15.04242343964370
SL-8 R/B                
1 20775U 90078B   26242.62538132  .00016148  00000+0  44441-3 0  9990
2 20775  82.8977  94.2383 0342480 145.7053 216.6815 14.94504665835233
SL-8 R/B                
1 21088U 91006B   26242.89651343  .00000129  00000+0  11420-3 0  9992
2 21088  82.9411  40.4337 0021071 266.8477 245.6160 13.77519608788057
OKEAN-3                 
1 21397U 91039A   26242.84662995  .00001777  00000+0  12094-3 0  9999
2 21397  82.5185 167.9738 0016325  95.6150 264.6939 15.05614260891239
COSMOS 2151             
1 21422U 91042A   26242.88005312  .00000827  00000+0  63250-4 0  9996
2 21422  82.4937 275.5942 0012155 182.5339 177.5826 15.00609873889319
SL-14 R/B               
1 21423U 91042B   26242.89932172  .00000254  00000+0  28998-4 0  9995
2 21423  82.4901  56.8141 0017804  33.0726 327.1597 14.81939340878878
ERS-1                   
1 21574U 91050A   26242.81495489  .00000212  00000+0  82107-4 0  9994
2 21574  98.7789 265.3331 0032728  47.0934 313.2992 14.39557339840786
ARIANE 40 R/B           
1 21610U 91050F   26242.73004368  .00000206  00000+0  73853-4 0  9999
2 21610  98.1815 288.2218 0001772 260.4737  99.6254 14.42994254844095
INTERCOSMOS 25          
1 21819U 91086A   26242.89354274  .00000754  00000+0  13996-3 0  9999
2 21819  82.6041 204.6134 1485660 101.2363 275.8826 12.12301480517799
SL-8 R/B                
1 21876U 92008B   26242.80615813  .00000079  00000+0  65307-4 0  9991
2 21876  82.9288 138.3190 0035112  10.5954  54.2153 13.75989996733362
SL-8 R/B                
1 21938U 92020B   26242.91398865  .00000106  00000+0  93748-4 0  9992
2 21938  82.9317  24.3348 0029365 168.9019 308.5740 13.75557905725084
USA 81                  
1 21949U 92023A   26242.88087849  .00000118  00000+0  36225-4 0  9990
2 21949  85.0076  30.8770 0001837 115.2950 244.8433 14.32414494119724
COSMOS 2219             
1 22219U 92076A   26242.81838022  .00000096  00000+0  75124-4 0  9995
2 22219  71.0631  14.0512 0020158 292.0481  67.8501 14.14114290742996
SL-16 R/B               
1 22220U 92076B   26242.93557580  .00000048  00000+0  47998-4 0  9992
2 22220  71.0004 181.3189 0013352 199.1642 223.4326 14.16881448746519
COSMOS 2221             
1 22236U 92080A   26242.68641828  .00001114  00000+0  95104-4 0  9992
2 22236  82.5025 112.3851 0013563 333.6149  26.4380 14.96715021806819
SL-16 R/B               
1 22285U 92093B   26242.72785139  .00000200  00000+0  12647-3 0  9994
2 22285  71.0237 358.9038 0003262  13.5447 346.5763 14.15468181737789
COSMOS 2228             
1 22286U 92094A   26242.91605138  .00001314  00000+0  10924-3 0  9990
2 22286  82.5146  70.4400 0019197  76.1126 284.2231 14.97789901802134
SL-16 R/B               
1 22566U 93016B   26242.92784996 -.00000008  00000+0  20238-4 0  9997
2 22566  71.0067 209.2241 0008447  48.9175 311.2676 14.15320549726826
COSMOS 2242             
1 22626U 93024A   26242.64255796  .00001246  00000+0  10544-3 0  9995
2 22626  82.5164 100.3003 0017706  80.3776 279.9446 14.97096138806413
SL-16 R/B               
1 22803U 93059B   26242.74020707  .00000185  00000+0  11503-3 0  9990
2 22803  70.9924   4.0785 0019000 301.2479  58.6783 14.17254725704194
ARIANE 40 R/B           
1 22830U 93061H   26242.78128983  .00000123  00000+0  60638-4 0  9998
2 22830  98.4756 308.0664 0011750 125.6093 234.6188 14.32933129719032
COSMOS 2278             
1 23087U 94023A   26242.93001754 -.00000081  00000+0 -17779-4 0  9998
2 23087  71.0531 170.5438 0007121 132.1801 227.9927 14.14399520669449
SL-16 R/B               
1 23088U 94023B   26242.89841357  .00000256  00000+0  15655-3 0  9997
2 23088  70.9987  65.0283 0002822 354.1376   5.9713 14.15032147670736
SL-16 R/B               
1 23343U 94074B   26242.94703736  .00000281  00000+0  44150-4 0  9992
2 23343  97.6972 266.5452 0007094  25.8187  38.0560 14.79556329713013
SL-16 R/B               
1 23405U 94077B   26242.74147335  .00000098  00000+0  74597-4 0  9993
2 23405  70.9857 346.3087 0004859 265.6673  94.3894 14.15582980640868
ARIANE 40+ R/B          
1 23561U 95021B   26242.83828562  .00000166  00000+0  66711-4 0  9999
2 23561  98.4353 311.8140 0006318 350.5898 126.1944 14.39866992644306
SL-16 R/B               
1 23705U 95058B   26242.89814284 -.00000071  00000+0 -11695-4 0  9999
2 23705  71.0222 174.4993 0013958 222.1918 137.8132 14.15518052592509
SL-16 R/B               
1 24298U 96051B   26242.88698686  .00000151  00000+0  10822-3 0  9993
2 24298  70.7685 166.5728 0019298 240.1383 119.7819 14.12474108546244
ORBVIEW 2 (SEASTAR)     
1 24883U 97037A   26242.87603268  .00000161  00000+0  72148-4 0  9990
2 24883  98.8767  51.9998 0001106 265.2205  94.8853 14.35585533533463
SL-16 R/B               
1 25400U 98043G   26242.87514183  .00000026  00000+0  30040-4 0  9996
2 25400  98.8434 197.7005 0008980 225.5205 134.5240 14.26078930463815
SL-16 R/B               
1 25407U 98045B   26242.89421934 -.00000161  00000+0 -57290-4 0  9996
2 25407  71.0118 175.2179 0005497 130.9087 229.2514 14.16212224451766
ISS (ZARYA)             
1 25544U 98067A   26242.62751382  .00005530  00000+0  10868-3 0  9998
2 25544  51.6315 291.6521 0005038  90.5345 269.6220 15.48940460583296
CZ-4B R/B               
1 25732U 99025C   26242.64649272  .00000018  00000+0  29289-4 0  9992
2 25732  98.6431 282.5921 0036682 202.7115 272.0626 14.18293583412820
OKEAN-O                 
1 25860U 99039A   26242.75933264  .00000456  00000+0  66345-4 0  9998
2 25860  97.9247 300.6767 0001870 102.0560 258.0861 14.80540138460149
SL-16 R/B               
1 25861U 99039B   26242.71207524  .00000366  00000+0  53002-4 0  9994
2 25861  97.9769 301.3370 0015906  55.8909 304.3811 14.81908846462635
DELTA 2 R/B             
1 25876U 99041E   26242.63208309  .00000985  00000+0  19708-3 0  9997
2 25876  51.7630 326.3065 0501020 141.8363 221.9180 14.12226721387606
HELIOS 1B               
1 25977U 99064A   26242.74894164  .00001099  00000+0  12556-3 0  9997
2 25977  98.1527 150.0220 0001139 131.9246 228.2067 14.88172049711149
TERRA                   
1 25994U 99068A   26242.93411506  .00000254  00000+0  60534-4 0  9998
2 25994  97.9393 289.4938 0002492  28.8030  22.8329 14.61152250420528
SL-16 R/B               
1 26070U 00006B   26242.88400473 -.00000055  00000+0 -36677-5 0  9996
2 26070  71.0013  91.5632 0018828 275.8482  84.0494 14.15847191373214
TITAN 4B R/B            
1 26474U 00047B   26242.89145425  .00002015  00000+0  12757-3 0  9990
2 26474  67.9870 270.2372 0043396 211.3997 148.4561 15.10549098419210
ENVISAT                 
1 27386U 02009A   26242.84824764  .00000062  00000+0  33875-4 0  9993
2 27386  98.3894 192.5218 0001166  88.7486 301.2392 14.39079471284225
IDEFIX & ARIANE 42P R/B 
1 27422U 02021B   26242.80032739  .00000169  00000+0  80660-4 0  9999
2 27422  98.5960 179.4809 0012671  39.2622 320.9478 14.31111072268926
AQUA                    
1 27424U 02022A   26242.91811351  .00000570  00000+0  12306-3 0  9996
2 27424  98.4361 213.7244 0001791  79.3320 337.3361 14.62184699294198
CZ-4B R/B               
1 27432U 02024C   26242.80181075  .00000012  00000+0  29322-4 0  9996
2 27432  98.8634 295.1145 0049127 247.8240 221.9609 14.14573498253853
MIDORI II (ADEOS-II)    
1 27597U 02056A   26242.89885327  .00000165  00000+0  82632-4 0  9995
2 27597  98.7955 202.8203 0000954 139.9114 220.2138 14.29382608235188
H-2A R/B                
1 27601U 02056E   26242.88939054  .00000204  00000+0  85933-4 0  9998
2 27601  98.3383 196.8639 0070338   3.7663  58.7137 14.33855457239077
CZ-4B R/B               
1 28059U 03049C   26242.90788066  .00000258  00000+0  70482-4 0  9999
2 28059  98.6947 244.7463 0049134  60.7863 299.8234 14.55142312211931
CZ-2C R/B               
1 28222U 04012C   26242.90538572  .00448140  96067-4  64321-3 0  9990
2 28222  97.7086 328.4578 0005556 286.1966  73.8702 16.05434876231761
SL-16 R/B               
1 28353U 04021B   26242.97436144 -.00000020  00000+0  14271-4 0  9993
2 28353  70.9992 226.7342 0003594 160.2265 199.8998 14.14622572147489
CZ-4B R/B               
1 28415U 04035C   26242.83300056  .00007488  00000+0  24427-3 0  9991
2 28415  97.3323 275.0972 0031909  70.6484 289.8203 15.31576764206546
CZ-2C R/B               
1 28480U 04046B   26242.72468073  .00000137  00000+0  66001-4 0  9996
2 28480  98.1855 146.8135 0139471   0.6850 359.4498 14.27047455133325
ARIANE 5 R/B            
1 28499U 04049H   26242.89834034  .00000677  00000+0  80551-4 0  9996
2 28499  98.2784  58.0738 0084478 145.7491 214.9212 14.85539046171651
CZ-2D R/B               
1 28738U 05024B   26242.60341116  .00091645  00000+0  51469-3 0  9999
2 28738  97.3429 266.2309 0005500 101.4401 258.7484 15.78983958167042
ALOS (DAICHI)           
1 28931U 06002A   26242.89122581  .00000949  00000+0  16586-3 0  9993
2 28931  98.1391 198.2563 0002168  89.9324 270.2130 14.70187890 99077
H-2A R/B                
1 28932U 06002B   26242.90891985  .00005351  00000+0  25136-3 0  9990
2 28932  98.2651  45.5944 0049753   9.1845 351.0285 15.19017614120869
RESURS-DK 1             
1 29228U 06021A   26242.92392101  .00001557  00000+0  92896-4 0  9990
2 29228  69.9313 146.0522 0005579 225.5519 134.5191 15.13467846113881
CZ-4B R/B               
1 29507U 06046C   26242.67209680  .00004106  00000+0  20081-3 0  9997
2 29507  97.5390 287.0489 0032883  26.4678 333.8226 15.18307694 86435
CZ-2C R/B               
1 31114U 07010B   26242.87630546  .00000071  00000+0  51138-4 0  9992
2 31114  98.4138 347.5895 0059673 146.9534 213.5395 14.20291548  4433
COSMO-SKYMED 1          
1 31598U 07023A   26242.98478522  .00001252  00000+0  11292-3 0  9996
2 31598  97.8837  75.4874 0001207  76.5303 283.6053 14.97394318 40986
COSMOS 2428             
1 31792U 07029A   26242.90331937  .00000207  00000+0  13690-3 0  9991
2 31792  70.9422 197.6127 0009460 352.9872   7.1115 14.12971498988709
SL-16 R/B               
1 31793U 07029B   26242.91021237  .00000330  00000+0  19581-3 0  9994
2 31793  70.9761 166.1509 0001659 270.0198 154.0046 14.14859756990010
KORONAS-FOTON           
1 33504U 09003A   26242.87667766  .00008845  00000+0  17297-3 0  9999
2 33504  82.4262  94.2523 0008323 241.6101 118.4310 15.47219021972645
CZ-2C R/B               
1 37731U 11030B   26242.86674786  .00000718  00000+0  95972-4 0  9995
2 37731  97.8723 196.9379 0052992 142.0479 242.9989 14.81599199815886
H-2A R/B                
1 38341U 12025E   26242.94187170  .00001773  00000+0  16113-3 0  9994
2 38341  98.4903 224.2967 0044798 102.0161 258.6084 14.95990310774269
SHIJIAN-16 (SJ-16)      
1 39358U 13057A   26242.97084829  .00001368  00000+0  13501-3 0  9997
2 39358  74.9708 215.0254 0014922  45.5609 314.6798 14.92750093697506
SL-4 R/B                
1 39679U 14021B   26242.88524556  .00015111  00000+0  29581-3 0  9997
2 39679  51.6045 204.4447 0088461  20.7726 339.6819 15.43434331683145
ALOS-2                  
1 39766U 14029A   26242.94110648  .00000673  00000+0  97014-4 0  9996
2 39766  97.9234 339.0352 0001589  93.1596 266.9798 14.79473820662633
YAOGAN-29               
1 41038U 15069A   26242.93110193  .00000333  00000+0  47520-4 0  9990
2 41038  98.0002 271.6719 0002720 113.0691 247.0810 14.83136930581703
ASTRO-H (HITOMI)        
1 41337U 16012A   26242.89572988  .00002179  00000+0  12227-3 0  9995
2 41337  31.0000 311.5836 0009553 284.8326  75.1254 15.10808802578597
HXMT (HUIYAN)           
1 42758U 17034A   26242.97678715  .00004074  00000+0  19975-3 0  9995
2 42758  43.0140 126.4138 0032817 260.3511  99.3629 15.19025343509032
SAOCOM 1A               
1 43641U 18076A   26242.93772170  .00000708  00000+0  95493-4 0  9990
2 43641  97.8892  68.6089 0001493  85.9589 274.1795 14.82158480427178
H-2A R/B                
1 43682U 18084L   26242.66575410  .00021778  00000+0  41686-3 0  9996
2 43682  98.8442 137.9577 0022586 132.9964 227.3179 15.47819164432631
SAOCOM 1B               
1 46265U 20059A   26242.96898269  .00000540  00000+0  74341-4 0  9993
2 46265  97.8900  67.7393 0001494  84.5531 275.5853 14.82159931324565
CSS (TIANHE)            
1 48274U 21035A   26242.40883657  .00019520  00000+0  24340-3 0  9995
2 48274  41.4676 231.4402 0001912 255.2624 104.8002 15.59424488304754
COSMOS 2550             
1 48865U 21056A   26241.25217943  .00005041  00000+0  15884-3 0  9991
2 48865  67.1409 238.8835 0008340 268.7834  91.2365 15.33848321289924
CZ-2C R/B               
1 52794U 22058K   26242.90407480  .00041103  00000+0  36929-3 0  9992
2 52794  50.1837 133.1744 0029652 221.4020 138.4709 15.67213386237344
CZ-2C R/B               
1 54039U 22132E   26242.93315483  .00089620  00000+0  44152-3 0  9996
2 54039  97.2877 253.8368 0013336 142.3606 217.8599 15.81758341217729
GSLV R/B                
1 54149U 22138AN  26242.69660149  .00001713  00000+0  14397-3 0  9994
2 54149  87.3761 107.9469 0018970 234.8673 125.0781 14.97541880209968
XRISM                   
1 57800U 23137A   26241.69559178  .00003835  00000+0  20645-3 0  9999
2 57800  31.0016 243.2413 0007443 344.7862  15.2552 15.12995188164004
ACS3                    
1 59588U 24077B   26242.76150632  .00028287  00000+0  19275-1 0  9992
2 59588  97.2036 145.2057 0104027 342.4331  17.3249 13.97170237118446
SPACEMOBILE-003         
1 61045U 24163A   26241.62803794 -.00000879  00000+0 -24865-4 0  9990
2 61045  52.9728 331.7514 0003489 348.3393  11.7520 15.20647733108948
SPACEMOBILE-005         
1 61046U 24163B   26242.59841255  .00004097  00000+0  19924-3 0  9995
2 61046  52.9823 327.2718 0008018 348.1946  11.8859 15.20576445109089
SPACEMOBILE-001         
1 61047U 24163C   26242.59743102  .00000292  00000+0  27906-4 0  9991
2 61047  52.9774 326.9687 0006380 358.7203   1.3774 15.20583186109089
SPACEMOBILE-002         
1 61048U 24163D   26242.64931576  .00019673  00000+0  89725-3 0  9991
2 61048  52.9782 326.8144 0006029 356.2254   3.8694 15.20638348109095
SPACEMOBILE-004         
1 61049U 24163E   26242.63037422  .00014920  00000+0  68589-3 0  9993
2 61049  52.9690 326.6548 0007340  19.3518 340.7753 15.20561236109097
CZ-8A R/B               
1 66004U 25231K   26242.81784465  .00000015  00000+0  64365-4 0  9991
2 66004  50.0032  81.7910 0116718 126.9146 234.2531 14.30176461 45627
SZ-21 MODULE            
1 66515U 25246C   26242.87540468  .00061477  00000+0  27141-3 0  9992
2 66515  41.4706 199.8329 0010241 202.9159 157.1232 15.83467919 45557
SPACEMOBILE-006         
1 67232U 25309A   26242.80182988  .00001210  00000+0  72612-4 0  9994
2 67232  52.9973 349.7924 0010836  10.8947 349.2279 15.18847503 37932
SPACEMOBILE-008         
1 69589U 26139A   26242.46271411  .00001326  00000+0  91230-4 0  9990
2 69589  52.9949 285.3266 0003823 171.0549 189.0510 15.12933822 11228
SPACEMOBILE-009         
1 69590U 26139B   26242.53391212  .00001104  00000+0  79056-4 0  9998
2 69590  52.9943 285.0484 0004210 169.3615 190.7465 15.12827891 11235
SPACEMOBILE-010         
1 69591U 26139C   26242.80612580  .00001215  00000+0  85612-4 0  9991
2 69591  52.9945 283.9023 0004492 160.6392 199.4770 15.12682879 11287
