ATLAS CENTAUR 2         
1 00694U 63047A   26240.57689547  .00001886  00000+0  21752-3 0  9996
2 00694  30.3547 314.5266 0545248 155.9622 206.7464 14.12639439155943
THOR AGENA D R/B        
1 00733U 64002A   26241.06723897  .00000124  00000+0  61382-4 0  9992
2 00733  99.1149 263.7287 0033806 115.8874 244.5800 14.34089986263003
SL-3 R/B                
1 00877U 64053B   26241.14016446  .00000103  00000+0  44231-4 0  9992
2 00877  65.0764 185.6015 0078065 238.0610 121.2883 14.61457347291991
SL-8 R/B                
1 02802U 67045B   26241.15962927  .00000189  00000+0  59801-4 0  9994
2 02802  74.0120  25.9583 0064421 350.9056   9.0929 14.45713064113947
SL-8 R/B                
1 03230U 68040B   26240.68839782  .00002213  00000+0  16173-3 0  9999
2 03230  74.0321 321.9774 0022787  95.2395 265.1395 15.04140949115868
OAO 2                   
1 03597U 68110A   26240.48867713  .00000157  00000+0  47307-4 0  9995
2 03597  34.9944  25.9655 0004949 140.7784 219.3266 14.47374865 44004
ISIS 1                  
1 03669U 69009A   26241.12922258  .00000182  00000+0  11249-3 0  9994
2 03669  88.4430 136.3944 1707650 100.9664 278.7381 11.30444469368015
SERT 2                  
1 04327U 70009A   26241.07032765 -.00000009  00000+0  43974-4 0  9997
2 04327  99.2852 174.8744 0005845  84.9847 285.1756 13.58744164803301
SL-3 R/B                
1 05118U 71028B   26241.13317248  .00100434  00000+0  60533-3 0  9998
2 05118  81.2300 196.5586 0011758  43.2960 316.9224 15.77255717 15715
ASTEX 1                 
1 05560U 71089A   26239.66154513  .00000439  00000+0  11140-3 0  9999
2 05560  92.7064 206.8911 0013776 220.5491 139.4690 14.50900272887094
SL-8 R/B                
1 05730U 71119B   26241.04274617  .00004710  00000+0  24289-3 0  9999
2 05730  73.8842 212.8300 0539381 143.9914 219.8882 14.40196477680280
OAO 3 (COPERNICUS)      
1 06153U 72065A   26240.51459962  .00000285  00000+0  62646-4 0  9992
2 06153  35.0065  38.2738 0005961 130.5887 276.4285 14.60094304871326
ATLAS CENTAUR R/B       
1 06155U 72065B   26241.10013795  .00000807  00000+0  11243-3 0  9996
2 06155  35.0027  15.0505 0033353  20.5868 339.6170 14.78024292866781
SL-8 R/B                
1 08459U 75112B   26240.51871625  .00000241  00000+0  87837-4 0  9994
2 08459  74.0591  62.8025 0014745 111.9441 248.3282 14.38272671656578
SL-3 R/B                
1 10114U 77057B   26241.10636715  .00011305  00000+0  20886-3 0  9993
2 10114  97.5869  61.2735 0007346  28.6167 331.5485 15.49226835694998
SEASAT 1                
1 10967U 78064A   26240.93438948  .00000128  00000+0  74020-4 0  9997
2 10967 108.0105 126.9979 0001756 302.6211  57.4765 14.46279550531418
SL-14 R/B               
1 11267U 79011B   26241.14102360  .00000365  00000+0  33360-4 0  9999
2 11267  82.5232 292.9268 0015486 195.8113 164.2626 14.92068781554491
SL-8 R/B                
1 11574U 79089B   26241.16758300  .00000165  00000+0  57776-4 0  9993
2 11574  74.0690 131.7590 0016845 260.1405  99.7850 14.42431423460976
SL-14 R/B               
1 11672U 80005B   26241.13358796  .00000424  00000+0  40247-4 0  9997
2 11672  82.5165 143.6531 0014502 312.5810  47.4184 14.91085408502185
SL-8 R/B                
1 12139U 81003B   26241.17914578  .00018223  00000+0  43197-3 0  9997
2 12139  82.9374 129.8379 0240085 296.1537  61.5179 15.16834504340779
SL-3 R/B                
1 12465U 81046B   26241.11915655  .00012095  00000+0  24924-3 0  9995
2 12465  81.2269  82.1094 0017905 134.2120 226.0600 15.45590359465037
SL-3 R/B                
1 12904U 81103B   26241.13480183  .00004270  00000+0  18125-3 0  9994
2 12904  81.1604  10.8864 0013625  66.5628 293.7035 15.22789793999464
SL-3 R/B                
1 13068U 82013B   26241.21533803  .00003370  00000+0  14052-3 0  9999
2 13068  81.1758 318.3155 0020852 319.0382  40.9283 15.23216975430609
SL-3 R/B                
1 13154U 82039B   26241.15720929  .00002028  00000+0  11910-3 0  9992
2 13154  81.1515  16.7883 0031122 109.7412 250.7175 15.10857045407670
SL-3 R/B                
1 13403U 82079B   26241.15885226  .00004736  00000+0  17993-3 0  9990
2 13403  81.1493 349.1307 0022728 302.0865  57.8162 15.26359267403991
SL-14 R/B               
1 13553U 82092B   26241.02798748  .00000363  00000+0  37787-4 0  9995
2 13553  82.5715 340.1433 0021889  89.5990  83.2272 14.86793602354533
SL-3 R/B                
1 13819U 83010B   26241.19689212  .00017200  00000+0  29451-3 0  9990
2 13819  81.1035 149.9327 0014984 154.1274 206.0726 15.50969031384644
SL-3 R/B                
1 14208U 83075B   26241.04996003  .00010423  00000+0  24712-3 0  9992
2 14208  97.6115 252.6058 0019003 336.6019  23.4360 15.41753842356681
COSMOS 1536             
1 14699U 84013A   26241.17226184  .00005671  00000+0  22012-3 0  9999
2 14699  82.5437 296.1210 0014718  41.7836 318.4523 15.25780869298906
SL-14 R/B               
1 14820U 84027B   26241.06895826  .00000327  00000+0  34402-4 0  9993
2 14820  82.5383  83.3620 0019272 120.1567 240.1562 14.86101830273230
SL-8 R/B                
1 15483U 85006B   26241.20965626  .00000127  00000+0  50568-4 0  9998
2 15483  74.0461 303.6852 0018195 179.5042 239.9245 14.37860980178820
SL-12 R/B(2)            
1 15772U 85042D   26241.04956971  .00000105  00000+0  68789-4 0  9994
2 15772  71.1065  83.5751 0036444 220.0722 256.0648 14.22018387138895
SL-14 R/B               
1 15945U 85069B   26240.93351998  .00000376  00000+0  39598-4 0  9996
2 15945  82.5248 222.9417 0018320 346.7442  13.3290 14.86559570198428
SL-16 R/B               
1 16182U 85097B   26241.14807816 -.00000036  00000+0  61503-5 0  9996
2 16182  71.0028 137.4752 0008099 337.6907 129.3599 14.16617459111654
SL-14 R/B               
1 16496U 86006B   26241.06403712  .00000499  00000+0  49812-4 0  9993
2 16496  82.5243  97.5322 0077647  61.6419 299.2599 14.87001644174820
COSMOS 1743             
1 16719U 86034A   26241.10390281  .00072694  00000+0  50711-3 0  9998
2 16719  82.5206 250.7888 0003610  69.3363 290.8288 15.74060037207231
SL-14 R/B               
1 16792U 86046B   26241.16054654  .00000300  00000+0  31621-4 0  9994
2 16792  82.4795 277.2272 0023576  21.6621 338.5586 14.85715645152015
SL-14 R/B               
1 16882U 86055B   26241.21741007  .00000356  00000+0  38059-4 0  9998
2 16882  82.5233 324.4764 0020247 119.1578 300.6346 14.85768211144988
AJISAI (EGS)            
1 16908U 86061A   26241.13684736 -.00000074  00000+0  16762-3 0  9994
2 16908  50.0089 283.0807 0011229   6.3345  74.0213 12.44517185489479
SL-14 R/B               
1 17567U 87024B   26241.19861575  .00000305  00000+0  31779-4 0  9992
2 17567  82.5273 290.6328 0019428  52.5897 307.7084 14.86258005113750
COSMOS 1833             
1 17589U 87027A   26240.95022426 -.00000281  00000+0 -12413-3 0  9994
2 17589  70.9218 323.9357 0027066 302.2075  57.6421 14.13058417 34658
SL-16 R/B               
1 17590U 87027B   26241.19998022  .00000317  00000+0  18107-3 0  9991
2 17590  71.0010 272.9699 0006711 233.9621 126.0882 14.17180421 39781
SL-14 R/B               
1 17912U 87038B   26241.14771687  .00000327  00000+0  35042-4 0  9991
2 17912  82.5026 134.3569 0018194 318.3159  41.6669 14.85488742104838
COSMOS 1844             
1 17973U 87041A   26240.80058716  .00000065  00000+0  58606-4 0  9995
2 17973  70.9003  31.1372 0029002 126.3951 233.9853 14.14583988 27929
SL-14 R/B               
1 18153U 87055B   26240.82484607  .00000343  00000+0  36497-4 0  9998
2 18153  82.5010 186.7520 0021063 160.0596 200.1449 14.85750481 95494
COSMOS 1867             
1 18187U 87060A   26240.85827808 -.00000067  00000+0  12477-4 0  9994
2 18187  65.0101 184.5366 0018181 281.3203  78.5839 14.31522340 44587
SL-14 R/B               
1 18749U 88001B   26241.16860047  .00000354  00000+0  37967-4 0  9990
2 18749  82.5126  33.0929 0018793  32.2005 328.0355 14.85651086 67633
COSMOS 1933             
1 18958U 88020A   26240.30554612  .00003107  00000+0  14660-3 0  9999
2 18958  82.5093  80.9879 0003377 346.6036  13.5108 15.19114244 76271
SL-3 R/B                
1 19046U 88032B   26240.93474830  .00004170  00000+0  18788-3 0  9999
2 19046  97.5327 223.9547 0025033 357.2560   2.8534 15.21345563 78280
SL-16 R/B               
1 19120U 88039B   26240.48529583  .00000143  00000+0  90099-4 0  9997
2 19120  71.0133  65.2819 0019708  74.6712 285.6589 14.19635692982764
COSMOS 1953             
1 19210U 88050A   26240.72495140  .00007148  00000+0  23834-3 0  9992
2 19210  82.5110 344.8350 0009516 229.4734 130.5679 15.30861217 64084
SL-8 R/B                
1 19257U 88053B   26241.15090750  .00000162  00000+0  60864-4 0  9996
2 19257  74.0483 154.5597 0021160 290.9218 173.9448 14.38989595  1298
COSMOS 1975             
1 19573U 88093A   26240.63090854  .00005662  00000+0  19282-3 0  9995
2 19573  82.5195 304.7946 0009349 283.5186  76.5013 15.30146642 45685
SL-14 R/B               
1 19574U 88093B   26240.48728271  .00000310  00000+0  32743-4 0  9993
2 19574  82.5277 240.7616 0020429 185.1590 334.5375 14.85781011 26522
SL-16 R/B               
1 19650U 88102B   26241.18227162 -.00000155  00000+0 -54373-4 0  9992
2 19650  71.0003 148.5499 0012016 111.0369 249.2041 14.16172807951313
INTERCOSMOS 24          
1 20261U 89080A   26240.76443042  .00000484  00000+0  14345-3 0  9995
2 20261  82.6122 352.3995 1186032 253.4036  93.3780 12.59712406688463
SL-14 R/B               
1 20262U 89080C   26240.48903390  .00000452  00000+0  12881-3 0  9990
2 20262  82.5885  62.8407 1229903 152.0108 215.3103 12.50594383681628
DELTA 1 R/B             
1 20323U 89089B   26241.05308377  .00000194  00000+0  56815-4 0  9994
2 20323  97.0655  60.9611 0067724 298.4181  61.0203 14.50767720920727
ARIANE 40 R/B           
1 20443U 90005H   26241.14560829  .00000165  00000+0  65781-4 0  9999
2 20443  98.2897 296.4702 0010998  51.0217 309.1950 14.39957601917628
DELTA 2 R/B(1)          
1 20453U 90008B   26240.97549825  .00212394  17003-4  80859-3 0  9993
2 20453  35.5937 103.5047 0035535  82.2253 278.2524 15.85471611953197
COSMOS 2058             
1 20465U 90010A   26241.05595844  .00002929  00000+0  16706-3 0  9996
2 20465  82.4654 237.4692 0011210  99.6332 260.6165 15.12356279968288
SL-14 R/B               
1 20466U 90010B   26241.14038826  .00000299  00000+0  33116-4 0  9992
2 20466  82.5004 105.4336 0021312  91.3401 269.0255 14.83685125954053
SL-14 R/B               
1 20511U 90018B   26240.78410752  .00000312  00000+0  36110-4 0  9995
2 20511  82.5182  62.2348 0014781 243.5044 116.4655 14.82255014948073
HST                     
1 20580U 90037B   26240.55771250  .00005820  00000+0  17845-3 0  9992
2 20580  28.4732 305.6703 0001660 216.3861 143.6623 15.31487121799673
SL-16 R/B               
1 20625U 90046B   26241.18416191  .00000276  00000+0  16698-3 0  9997
2 20625  70.9994 295.6385 0012886  34.9291 325.2675 14.15032283872798
COSMOS 2084             
1 20663U 90055A   26240.62375711  .00001747  00000+0  13166-3 0  9990
2 20663  62.7883 108.8043 0014336 343.3934  16.6695 15.06369397962215
SL-6 R/B(2)             
1 20666U 90055D   26240.84712652  .00001376  00000+0  11048-3 0  9991
2 20666  62.7822  28.0717 0051947  14.6884 345.5710 15.04236943964080
SL-8 R/B                
1 20775U 90078B   26241.08535475  .00016618  00000+0  45831-3 0  9992
2 20775  82.8982  95.6353 0342495 150.9165 211.1629 14.94451165835003
SL-8 R/B                
1 21088U 91006B   26240.86447198  .00000137  00000+0  12277-3 0  9998
2 21088  82.9408  41.9461 0021072 272.9157 248.2056 13.77519148787771
OKEAN-3                 
1 21397U 91039A   26241.18512810  .00002085  00000+0  14226-3 0  9997
2 21397  82.5188 169.5851 0016243 100.9742 259.3314 15.05609072890986
COSMOS 2151             
1 21422U 91042A   26240.87960745  .00000875  00000+0  67030-4 0  9996
2 21422  82.4940 277.5256 0011955 189.4136 170.6866 15.00606688889017
SL-14 R/B               
1 21423U 91042B   26240.87370242  .00000289  00000+0  33422-4 0  9991
2 21423  82.4900  58.7150 0017941  39.3832 320.8682 14.81938505878571
ERS-1                   
1 21574U 91050A   26240.52127495  .00000253  00000+0  95233-4 0  9998
2 21574  98.7790 262.9836 0032839  53.7309 306.6904 14.39556158840455
ARIANE 40 R/B           
1 21610U 91050F   26241.13520337  .00000224  00000+0  79341-4 0  9999
2 21610  98.1818 286.6903 0001769 269.0273  91.0715 14.42993525843869
INTERCOSMOS 25          
1 21819U 91086A   26240.99535066  .00000677  00000+0  12482-3 0  9991
2 21819  82.6038 205.7609 1485674 105.3288 271.6420 12.12298460517562
SL-8 R/B                
1 21876U 92008B   26241.21590725  .00000083  00000+0  69924-4 0  9993
2 21876  82.9290 139.5011 0035222  14.9740  96.8703 13.75989819733146
SL-8 R/B                
1 21938U 92020B   26240.88645370  .00000113  00000+0  10133-3 0  9996
2 21938  82.9313  25.8408 0029226 174.5013 348.2661 13.75557545724808
USA 81                  
1 21949U 92023A   26240.85506976  .00000133  00000+0  41882-4 0  9994
2 21949  85.0074  32.0465 0001756 115.3028 244.8347 14.32414154119439
COSMOS 2219             
1 22219U 92076A   26240.76701189  .00000156  00000+0  10655-3 0  9994
2 22219  71.0627  18.3396 0020036 294.8510  65.0529 14.14113509742707
SL-16 R/B               
1 22220U 92076B   26240.81016189  .00000168  00000+0  10753-3 0  9993
2 22220  71.0001 185.7960 0013465 202.1032 182.4780 14.16880889746217
COSMOS 2221             
1 22236U 92080A   26240.61392206  .00001245  00000+0  10662-3 0  9996
2 22236  82.5028 114.3717 0013749 340.9012  19.1693 14.96710526806508
SL-16 R/B               
1 22285U 92093B   26240.74911409  .00000090  00000+0  70543-4 0  9992
2 22285  71.0235   3.0578 0003154  16.6220 343.5006 14.15467486737501
COSMOS 2228             
1 22286U 92094A   26240.84503759  .00001391  00000+0  11578-3 0  9997
2 22286  82.5145  72.4256 0019243  82.4910 277.8498 14.97784765801828
SL-16 R/B               
1 22566U 93016B   26240.87823316  .00000092  00000+0  71810-4 0  9993
2 22566  71.0064 213.5290 0008392  53.0045 307.1845 14.15320186726534
COSMOS 2242             
1 22626U 93024A   26241.10528860  .00001368  00000+0  11602-3 0  9991
2 22626  82.5165 101.7720 0017711  85.0989 275.2255 14.97092656806181
SL-16 R/B               
1 22803U 93059B   26241.04628624  .00000079  00000+0  62854-4 0  9992
2 22803  70.9923   7.6507 0018952 303.5813  56.3501 14.17254209703959
ARIANE 40 R/B           
1 22830U 93061H   26241.17526683  .00000145  00000+0  68555-4 0  9999
2 22830  98.4759 306.4950 0011694 129.9231 230.2982 14.32932659718808
COSMOS 2278             
1 23087U 94023A   26241.16195154 -.00000140  00000+0 -48343-4 0  9997
2 23087  71.0531 174.2428 0007127 135.6523 224.5171 14.14399804669195
SL-16 R/B               
1 23088U 94023B   26240.98976012  .00000292  00000+0  17517-3 0  9991
2 23088  70.9984  69.0373 0002684 357.4057   2.7051 14.15031003670465
SL-16 R/B               
1 23343U 94074B   26240.52978352  .00000348  00000+0  53102-4 0  9993
2 23343  97.6975 264.2294 0007286  32.8487 123.6418 14.79554893712655
SL-16 R/B               
1 23405U 94077B   26240.76290025  .00000186  00000+0  11951-3 0  9990
2 23405  70.9856 350.4711 0004821 266.7951  93.2620 14.15582239640588
ARIANE 40+ R/B          
1 23561U 95021B   26241.15832169  .00000197  00000+0  76526-4 0  9990
2 23561  98.4355 310.1594 0006415 355.8079  57.8879 14.39866408644062
SL-16 R/B               
1 23705U 95058B   26241.13147568  .00000001  00000+0  24947-4 0  9994
2 23705  71.0221 178.2081 0014039 224.4766 135.5230 14.15518013592258
SL-16 R/B               
1 24298U 96051B   26241.18734690  .00000146  00000+0  10579-3 0  9994
2 24298  70.7683 170.1688 0019325 242.2352 117.6808 14.12473448546003
ORBVIEW 2 (SEASTAR)     
1 24883U 97037A   26240.08812620  .00000182  00000+0  79293-4 0  9996
2 24883  98.8762  49.1318 0001111 281.0208  79.0852 14.35584287533063
SL-16 R/B               
1 25400U 98043G   26240.84044377  .00000025  00000+0  29441-4 0  9996
2 25400  98.8431 195.6467 0008904 231.8811 128.1567 14.26078674463524
SL-16 R/B               
1 25407U 98045B   26240.77525930 -.00000072  00000+0 -12356-4 0  9997
2 25407  71.0116 179.6736 0005605 135.1881 224.9696 14.16212533451464
ISS (ZARYA)             
1 25544U 98067A   26240.88552474  .00011482  00000+0  21677-3 0  9998
2 25544  51.6317 300.2698 0005025  85.3239 274.8323 15.48926310583021
CZ-4B R/B               
1 25732U 99025C   26240.89418704  .00000047  00000+0  43355-4 0  9993
2 25732  98.6435 280.8851 0036601 207.8406 324.9548 14.18293361412573
OKEAN-O                 
1 25860U 99039A   26240.66422511  .00000489  00000+0  70565-4 0  9999
2 25860  97.9253 298.6074 0001829 104.9345 255.2070 14.80538192459831
SL-16 R/B               
1 25861U 99039B   26240.61890542  .00000426  00000+0  60548-4 0  9999
2 25861  97.9773 299.2516 0015967  62.1652 298.1176 14.81907154462321
DELTA 2 R/B             
1 25876U 99041E   26240.65063343  .00001252  00000+0  23969-3 0  9996
2 25876  51.7630 334.2260 0501078 135.9871 228.2112 14.12222011387324
HELIOS 1B               
1 25977U 99064A   26240.59733800  .00001113  00000+0  12716-3 0  9992
2 25977  98.1529 147.8097 0001029 132.6813 227.4490 14.88167175710822
TERRA                   
1 25994U 99068A   26240.90404245  .00000299  00000+0  69714-4 0  9993
2 25994  97.9397 287.5458 0002627  33.3159 146.2268 14.61151121420227
SL-16 R/B               
1 26070U 00006B   26240.34059917  .00000098  00000+0  73868-4 0  9995
2 26070  71.0014  96.9117 0018771 279.2372  80.6628 14.15846888372857
TITAN 4B R/B            
1 26474U 00047B   26240.83878741  .00002172  00000+0  13692-3 0  9999
2 26474  67.9862 276.0183 0043483 213.5203 146.3195 15.10540198418903
ENVISAT                 
1 27386U 02009A   26240.82918315  .00000064  00000+0  34716-4 0  9992
2 27386  98.3890 190.5464 0001159  87.6271 288.2780 14.39079093283936
IDEFIX & ARIANE 42P R/B 
1 27422U 02021B   26240.77277324  .00000177  00000+0  83647-4 0  9991
2 27422  98.5957 177.4747 0012757  44.8430 315.3782 14.31110254268630
AQUA                    
1 27424U 02022A   26240.92681534  .00000631  00000+0  13521-3 0  9991
2 27424  98.4357 211.6913 0001799  80.6159 300.3249 14.62182376293909
CZ-4B R/B               
1 27432U 02024C   26240.90463973  .00000024  00000+0  35246-4 0  9990
2 27432  98.8638 293.2312 0049102 253.3282 280.5722 14.14573354253581
MIDORI II (ADEOS-II)    
1 27597U 02056A   26240.86885356  .00000194  00000+0  94072-4 0  9995
2 27597  98.7951 200.7713 0000866 141.3301 218.7943 14.29381846234890
H-2A R/B                
1 27601U 02056E   26240.85759343  .00000240  00000+0  98588-4 0  9994
2 27601  98.3379 194.9045 0070471   9.7934  10.8488 14.33854565238781
CZ-4B R/B               
1 28059U 03049C   26240.01988844  .00000342  00000+0  89725-4 0  9999
2 28059  98.6945 241.7418 0049219  69.3804 291.2661 14.55140765211514
CZ-2C R/B               
1 28222U 04012C   26240.72242778  .00356647  58717-4  57777-3 0  9995
2 28222  97.7080 325.9295 0004558 295.4797  64.6011 16.03426582231415
SL-16 R/B               
1 28353U 04021B   26240.28733103  .00000091  00000+0  72356-4 0  9995
2 28353  70.9990 232.3736 0003819 164.7858 195.3380 14.14622156147107
CZ-4B R/B               
1 28415U 04035C   26240.54627137  .00006818  00000+0  22289-3 0  9999
2 28415  97.3326 272.8343 0032026  78.2706 282.2126 15.31540570206196
CZ-2C R/B               
1 28480U 04046B   26240.69137361  .00000149  00000+0  70368-4 0  9997
2 28480  98.1856 144.9091 0139604   6.6910 353.6093 14.27046797133030
ARIANE 5 R/B            
1 28499U 04049H   26240.87762782  .00000842  00000+0  98454-4 0  9997
2 28499  98.2781  55.9730 0084332 152.2480 208.3272 14.85536199171352
CZ-2D R/B               
1 28738U 05024B   26240.32161280  .00088116  00000+0  50455-3 0  9991
2 28738  97.3437 263.8047 0005553 106.4884 253.6993 15.78561170166687
ALOS (DAICHI)           
1 28931U 06002A   26240.30496698  .00001050  00000+0  18268-3 0  9993
2 28931  98.1386 195.6755 0002145  93.0334 267.1117 14.70182680 98696
H-2A R/B                
1 28932U 06002B   26240.33985699  .00005426  00000+0  25496-3 0  9993
2 28932  98.2640  42.7856 0049951  17.9081 342.3897 15.18985452120479
RESURS-DK 1             
1 29228U 06021A   26240.74287017  .00001813  00000+0  10718-3 0  9994
2 29228  69.9314 151.7003 0005624 228.0214 132.0474 15.13461094113550
CZ-4B R/B               
1 29507U 06046C   26240.56314166  .00003506  00000+0  17205-3 0  9996
2 29507  97.5396 284.9471 0033097  33.6279 326.7046 15.18290726 86116
CZ-2C R/B               
1 31114U 07010B   26240.76284896  .00000094  00000+0  62063-4 0  9995
2 31114  98.4138 345.5787 0059569 153.0114 207.4182 14.20291195  4139
COSMO-SKYMED 1          
1 31598U 07023A   26240.98006142  .00001357  00000+0  12198-3 0  9991
2 31598  97.8845  73.4650 0001428  75.9345 284.2036 14.97389953 40683
COSMOS 2428             
1 31792U 07029A   26240.28394993  .00000239  00000+0  15383-3 0  9997
2 31792  70.9416 203.1110 0009252 357.1315   2.9752 14.12970116988330
SL-16 R/B               
1 31793U 07029B   26240.78201368  .00000296  00000+0  17826-3 0  9993
2 31793  70.9757 170.6243 0001675 268.6886 118.5982 14.14858291989717
KORONAS-FOTON           
1 33504U 09003A   26241.06577971  .00008436  00000+0  16512-3 0  9992
2 33504  82.4263  96.1469 0008215 249.7327 110.3040 15.47186438972360
CZ-2C R/B               
1 37731U 11030B   26240.84153765  .00000769  00000+0  10237-3 0  9996
2 37731  97.8720 194.9472 0052869 148.5134 241.1573 14.81596385815588
H-2A R/B                
1 38341U 12025E   26240.93528315  .00001672  00000+0  15236-3 0  9994
2 38341  98.4905 222.1222 0044819 108.2416 252.3688 14.95984256773966
SHIJIAN-16 (SJ-16)      
1 39358U 13057A   26241.22830829  .00000703  00000+0  70779-4 0  9996
2 39358  74.9701 218.3266 0014865  50.2436 310.0059 14.92743579697247
SL-4 R/B                
1 39679U 14021B   26241.20175145  .00018169  00000+0  35423-3 0  9996
2 39679  51.6039 212.7108 0088511  14.5863 345.7646 15.43377794682888
ALOS-2                  
1 39766U 14029A   26241.18265396  .00001063  00000+0  14922-3 0  9992
2 39766  97.9234 337.3018 0001626  95.4231 264.7166 14.79471874662379
YAOGAN-29               
1 41038U 15069A   26241.17699184  .00000592  00000+0  79230-4 0  9997
2 41038  98.0005 269.9157 0002642 116.6514 243.4970 14.83135399581444
ASTRO-H (HITOMI)        
1 41337U 16012A   26240.91370352  .00002394  00000+0  13490-3 0  9999
2 41337  31.0004 324.3897 0009565 265.1192  94.8354 15.10800908578291
HXMT (HUIYAN)           
1 42758U 17034A   26241.06988329  .00004476  00000+0  21842-3 0  9991
2 42758  43.0144 137.0403 0032762 248.6771 111.0579 15.19008780508744
SAOCOM 1A               
1 43641U 18076A   26241.18245105 -.00000399  00000+0 -43611-4 0  9992
2 43641  97.8892  66.8786 0001493  86.0381 274.1002 14.82154164426911
H-2A R/B                
1 43682U 18084L   26241.17881990  .00026515  00000+0  50791-3 0  9995
2 43682  98.8449 136.1411 0022608 137.9787 222.3198 15.47751121432408
SAOCOM 1B               
1 46265U 20059A   26241.14620361  .00000581  00000+0  79586-4 0  9999
2 46265  97.8898  65.9421 0001486  85.5838 274.5544 14.82157710324294
CSS (TIANHE)            
1 48274U 21035A   26241.12796219  .00016121  00000+0  20225-3 0  9992
2 48274  41.4675 239.2190 0001828 254.1114 105.9523 15.59368515304557
COSMOS 2550             
1 48865U 21056A   26241.18697275  .00004641  00000+0  14673-3 0  9993
2 48865  67.1409 239.0808 0008343 268.8181  91.2018 15.33846595289911
CZ-2C R/B               
1 52794U 22058K   26240.73614803  .00035458  00000+0  32196-3 0  9998
2 52794  50.1847 144.5439 0029671 212.0464 147.8708 15.67025993237002
CZ-2C R/B               
1 54039U 22132E   26241.03502128  .00094492  00000+0  47350-3 0  9996
2 54039  97.2886 251.8254 0013153 148.5725 211.6332 15.81380297217423
GSLV R/B                
1 54149U 22138AN  26241.09288560  .00001619  00000+0  13590-3 0  9999
2 54149  87.3764 108.4869 0018833 241.3343 118.5995 14.97536998209728
XRISM                   
1 57800U 23137A   26240.70601174  .00003631  00000+0  19519-3 0  9996
2 57800  31.0016 249.6570 0007477 334.9226  25.1049 15.12988242163856
ACS3                    
1 59588U 24077B   26240.68460398  .00029841  00000+0  20303-1 0  9995
2 59588  97.2028 143.5753 0108244 344.6112  15.1773 13.97028183118155
SPACEMOBILE-003         
1 61045U 24163A   26238.47330053 -.00000722  00000+0 -17783-4 0  9990
2 61045  52.9752 346.2552 0003635 342.1733  17.9133 15.20665647108460
SPACEMOBILE-005         
1 61046U 24163B   26240.62657937  .00006147  00000+0  29155-3 0  9994
2 61046  52.9824 336.3345 0007954 342.4138  17.6579 15.20566937108789
SPACEMOBILE-001         
1 61047U 24163C   26239.63970080  .00000767  00000+0  49307-4 0  9995
2 61047  52.9781 340.5656 0006078 351.3223   8.7665 15.20567457108633
SPACEMOBILE-002         
1 61048U 24163D   26239.69166929  .00020099  00000+0  91655-3 0  9993
2 61048  52.9765 340.4134 0006498 345.0930  14.9872 15.20627023108643
SPACEMOBILE-004         
1 61049U 24163E   26239.67259105  .00016302  00000+0  74812-3 0  9999
2 61049  52.9705 340.2515 0006834   9.1608 350.9509 15.20553508108649
CZ-8A R/B               
1 66004U 25231K   26240.65177930  .00000037  00000+0  72405-4 0  9992
2 66004  50.0031  91.0074 0116720 119.2768 241.9873 14.30175910 45317
SZ-21 MODULE            
1 66515U 25246C   26240.98319252  .00066751  00000+0  29817-3 0  9999
2 66515  41.4701 211.7392 0009766 189.2643 170.8025 15.83202155 45259
SPACEMOBILE-006         
1 67232U 25309A   26239.77491028  .00002384  00000+0  12819-3 0  9999
2 67232  52.9986   3.6621 0010792   2.4199 357.6845 15.18837764 37472
SPACEMOBILE-008         
1 69589U 26139A   26240.87727826  .00001240  00000+0  86438-4 0  9998
2 69589  52.9954 292.5261 0003912 166.2611 193.8488 15.12929604 10986
SPACEMOBILE-009         
1 69590U 26139B   26240.55197825  .00001392  00000+0  95244-4 0  9998
2 69590  52.9949 294.0476 0004326 162.9045 197.2092 15.12824633 10931
SPACEMOBILE-010         
1 69591U 26139C   26240.55972071  .00001580  00000+0  10622-3 0  9998
2 69591  52.9950 294.0995 0004656 154.6045 205.5176 15.12676610 10941
